[{"OBJECT_NAME":"CARTOSAT-2D","OBJECT_ID":"2017-008A","EPOCH":"2026-03-09T20:04:55.043616","MEAN_MOTION":15.19249562,"ECCENTRICITY":0.00043767,"INCLINATION":97.4228,"RA_OF_ASC_NODE":129.9353,"ARG_OF_PERICENTER":220.799,"MEAN_ANOMALY":139.2917,"EPHEMERIS_TYPE":0,"CLASSIFICATION_TYPE":"U","NORAD_CAT_ID":41948,"ELEMENT_SET_NO":999,"REV_AT_EPOCH":50249,"BSTAR":2.9491802e-5,"MEAN_MOTION_DOT":5.54e-6,"MEAN_MOTION_DDOT":0},{"OBJECT_NAME":"HAWK-13B","OBJECT_ID":"2026-004AK","EPOCH":"2026-03-09T21:38:50.163072","MEAN_MOTION":15.18214359,"ECCENTRICITY":0.00057548,"INCLINATION":97.4526,"RA_OF_ASC_NODE":69.3757,"ARG_OF_PERICENTER":335.2738,"MEAN_ANOMALY":24.8219,"EPHEMERIS_TYPE":0,"CLASSIFICATION_TYPE":"U","NORAD_CAT_ID":67396,"ELEMENT_SET_NO":999,"REV_AT_EPOCH":869,"BSTAR":0.00016976548,"MEAN_MOTION_DOT":3.406e-5,"MEAN_MOTION_DDOT":0}]
